{
    "satellites": [
        {
            "name": "starlink338",
            "title": "Starlink-338 (G6-99)",
            "tle": [
                "1 71284C 25303M   25361.09840278 -.01791800  00000+0 -75495-2 0  3612",
                "2 71284  43.0021   9.5177 0001132 259.7519  34.8210 15.86267279    10"
            ],
            "stdMag": 5,
            "noradId": "71284",
            "tleUrl": "http://celestrak.org/NORAD/elements/supplemental/sup-gp.php?FILE=starlink&FORMAT=tle",
            "launchDate": "2025-12-17T13:42:10.000Z",
            "active": true,
            "batch": [
                {
                    "noradId": "71284",
                    "tle": [
                        "1 71284C 25303M   25361.09840278 -.01791800  00000+0 -75495-2 0  3612",
                        "2 71284  43.0021   9.5177 0001132 259.7519  34.8210 15.86267279    10"
                    ]
                },
                {
                    "noradId": "71283",
                    "tle": [
                        "1 71283C 25303L   25361.10395833 -.01791700  00000+0 -75656-2 0  3613",
                        "2 71283  43.0020   9.4863 0001116 266.5649  58.7464 15.86221621    18"
                    ]
                },
                {
                    "noradId": "71277",
                    "tle": [
                        "1 71277C 25303E   25361.10048611 -.01790900  00000+0 -76052-2 0  3617",
                        "2 71277  43.0019   9.5198 0001112 262.1080  38.5226 15.86101842    12"
                    ]
                },
                {
                    "noradId": "71276",
                    "tle": [
                        "1 71276C 25303D   25361.10534722 -.01791500  00000+0 -76450-2 0  3618",
                        "2 71276  43.0020   9.4971 0001201 262.9084  62.7316 15.86000895    17"
                    ]
                },
                {
                    "noradId": "71275",
                    "tle": [
                        "1 71275C 25303C   25361.09770833 -.01787200  00000+0 -76068-2 0  3617",
                        "2 71275  43.0018   9.5414 0001065 262.5285  20.3696 15.86051058    11"
                    ]
                },
                {
                    "noradId": "71274",
                    "tle": [
                        "1 71274C 25303B   25361.09979167 -.01788100  00000+0 -76339-2 0  3618",
                        "2 71274  43.0019   9.5333 0001174 266.4365  26.5465 15.85987701    18"
                    ]
                }
            ]
        }
    ],
    "config": {}
}